[{"OBJECT_NAME":"ONEWEB-0576","OBJECT_ID":"2023-043V","EPOCH":"2025-12-30T06:32:11.510016","MEAN_MOTION":13.16593579,"ECCENTRICITY":0.00017496,"INCLINATION":87.9048,"RA_OF_ASC_NODE":262.4042,"ARG_OF_PERICENTER":80.3901,"MEAN_ANOMALY":279.7428,"EPHEMERIS_TYPE":0,"CLASSIFICATION_TYPE":"U","NORAD_CAT_ID":56065,"ELEMENT_SET_NO":999,"REV_AT_EPOCH":13673,"BSTAR":5.7929369e-5,"MEAN_MOTION_DOT":3.5e-7,"MEAN_MOTION_DDOT":0},{"OBJECT_NAME":"ONEWEB-0577","OBJECT_ID":"2023-043W","EPOCH":"2025-12-30T06:41:18.267360","MEAN_MOTION":13.16592756,"ECCENTRICITY":0.00023172,"INCLINATION":87.9049,"RA_OF_ASC_NODE":262.4022,"ARG_OF_PERICENTER":84.2652,"MEAN_ANOMALY":275.8743,"EPHEMERIS_TYPE":0,"CLASSIFICATION_TYPE":"U","NORAD_CAT_ID":56066,"ELEMENT_SET_NO":999,"REV_AT_EPOCH":13676,"BSTAR":-0.00021077954,"MEAN_MOTION_DOT":-6.8e-7,"MEAN_MOTION_DDOT":0},{"OBJECT_NAME":"ONEWEB-0578","OBJECT_ID":"2023-043X","EPOCH":"2025-12-30T05:23:24.677088","MEAN_MOTION":13.2182605,"ECCENTRICITY":0.00015782,"INCLINATION":87.9228,"RA_OF_ASC_NODE":277.676,"ARG_OF_PERICENTER":83.37,"MEAN_ANOMALY":276.7614,"EPHEMERIS_TYPE":0,"CLASSIFICATION_TYPE":"U","NORAD_CAT_ID":56067,"ELEMENT_SET_NO":999,"REV_AT_EPOCH":13591,"BSTAR":9.3474471e-5,"MEAN_MOTION_DOT":5.2e-7,"MEAN_MOTION_DDOT":0},{"OBJECT_NAME":"ONEWEB-0579","OBJECT_ID":"2023-043Y","EPOCH":"2025-12-30T05:09:08.860032","MEAN_MOTION":13.21828517,"ECCENTRICITY":0.00017507,"INCLINATION":87.9229,"RA_OF_ASC_NODE":277.6657,"ARG_OF_PERICENTER":65.1228,"MEAN_ANOMALY":295.0087,"EPHEMERIS_TYPE":0,"CLASSIFICATION_TYPE":"U","NORAD_CAT_ID":56068,"ELEMENT_SET_NO":999,"REV_AT_EPOCH":13592,"BSTAR":-0.00030441947,"MEAN_MOTION_DOT":-1.13e-6,"MEAN_MOTION_DDOT":0},{"OBJECT_NAME":"ONEWEB-0581","OBJECT_ID":"2023-043Z","EPOCH":"2025-12-30T05:00:59.285664","MEAN_MOTION":13.16593274,"ECCENTRICITY":0.00019964,"INCLINATION":87.9041,"RA_OF_ASC_NODE":262.4292,"ARG_OF_PERICENTER":75.5728,"MEAN_ANOMALY":284.5624,"EPHEMERIS_TYPE":0,"CLASSIFICATION_TYPE":"U","NORAD_CAT_ID":56069,"ELEMENT_SET_NO":999,"REV_AT_EPOCH":13672,"BSTAR":-2.3615467e-5,"MEAN_MOTION_DOT":4.0e-8,"MEAN_MOTION_DDOT":0},{"OBJECT_NAME":"ONEWEB-0609","OBJECT_ID":"2023-043AA","EPOCH":"2025-12-30T06:15:01.510560","MEAN_MOTION":13.15548504,"ECCENTRICITY":0.00016209,"INCLINATION":87.9006,"RA_OF_ASC_NODE":292.9301,"ARG_OF_PERICENTER":71.0036,"MEAN_ANOMALY":289.127,"EPHEMERIS_TYPE":0,"CLASSIFICATION_TYPE":"U","NORAD_CAT_ID":56070,"ELEMENT_SET_NO":999,"REV_AT_EPOCH":13422,"BSTAR":0.00067175383,"MEAN_MOTION_DOT":2.66e-6,"MEAN_MOTION_DDOT":0},{"OBJECT_NAME":"ONEWEB-0613","OBJECT_ID":"2023-043AB","EPOCH":"2025-12-30T06:08:10.436640","MEAN_MOTION":13.15546948,"ECCENTRICITY":0.00017286,"INCLINATION":87.9006,"RA_OF_ASC_NODE":292.9427,"ARG_OF_PERICENTER":66.3357,"MEAN_ANOMALY":293.7955,"EPHEMERIS_TYPE":0,"CLASSIFICATION_TYPE":"U","NORAD_CAT_ID":56071,"ELEMENT_SET_NO":999,"REV_AT_EPOCH":13422,"BSTAR":0.00047494679,"MEAN_MOTION_DOT":1.92e-6,"MEAN_MOTION_DDOT":0},{"OBJECT_NAME":"ONEWEB-0630","OBJECT_ID":"2023-043AC","EPOCH":"2025-12-30T06:01:19.443936","MEAN_MOTION":13.15547277,"ECCENTRICITY":0.00017597,"INCLINATION":87.9004,"RA_OF_ASC_NODE":292.9151,"ARG_OF_PERICENTER":67.3664,"MEAN_ANOMALY":292.7652,"EPHEMERIS_TYPE":0,"CLASSIFICATION_TYPE":"U","NORAD_CAT_ID":56072,"ELEMENT_SET_NO":999,"REV_AT_EPOCH":13421,"BSTAR":0.00059044506,"MEAN_MOTION_DOT":2.35e-6,"MEAN_MOTION_DDOT":0},{"OBJECT_NAME":"ONEWEB-0632","OBJECT_ID":"2023-043AD","EPOCH":"2025-12-30T05:54:29.221920","MEAN_MOTION":13.1554941,"ECCENTRICITY":0.0001901,"INCLINATION":87.9002,"RA_OF_ASC_NODE":292.9333,"ARG_OF_PERICENTER":75.4089,"MEAN_ANOMALY":284.7252,"EPHEMERIS_TYPE":0,"CLASSIFICATION_TYPE":"U","NORAD_CAT_ID":56073,"ELEMENT_SET_NO":999,"REV_AT_EPOCH":13421,"BSTAR":0.00014412061,"MEAN_MOTION_DOT":6.7e-7,"MEAN_MOTION_DDOT":0},{"OBJECT_NAME":"ONEWEB-0633","OBJECT_ID":"2023-043AE","EPOCH":"2025-12-30T05:45:21.484800","MEAN_MOTION":13.15547384,"ECCENTRICITY":0.00015863,"INCLINATION":87.9004,"RA_OF_ASC_NODE":292.8974,"ARG_OF_PERICENTER":60.3403,"MEAN_ANOMALY":299.7885,"EPHEMERIS_TYPE":0,"CLASSIFICATION_TYPE":"U","NORAD_CAT_ID":56074,"ELEMENT_SET_NO":999,"REV_AT_EPOCH":13419,"BSTAR":0.00018206399,"MEAN_MOTION_DOT":8.1e-7,"MEAN_MOTION_DDOT":0},{"OBJECT_NAME":"ONEWEB-0634","OBJECT_ID":"2023-043AF","EPOCH":"2025-12-30T05:24:49.172832","MEAN_MOTION":13.15547587,"ECCENTRICITY":0.00014253,"INCLINATION":87.9007,"RA_OF_ASC_NODE":292.9516,"ARG_OF_PERICENTER":78.6775,"MEAN_ANOMALY":281.4515,"EPHEMERIS_TYPE":0,"CLASSIFICATION_TYPE":"U","NORAD_CAT_ID":56075,"ELEMENT_SET_NO":999,"REV_AT_EPOCH":13418,"BSTAR":-0.00027014065,"MEAN_MOTION_DOT":-8.9e-7,"MEAN_MOTION_DDOT":0},{"OBJECT_NAME":"ONEWEB-0635","OBJECT_ID":"2023-043AG","EPOCH":"2025-12-30T05:17:58.703712","MEAN_MOTION":13.15548267,"ECCENTRICITY":0.00020523,"INCLINATION":87.9004,"RA_OF_ASC_NODE":292.9056,"ARG_OF_PERICENTER":77.5212,"MEAN_ANOMALY":282.6147,"EPHEMERIS_TYPE":0,"CLASSIFICATION_TYPE":"U","NORAD_CAT_ID":56076,"ELEMENT_SET_NO":999,"REV_AT_EPOCH":13421,"BSTAR":-0.00034922233,"MEAN_MOTION_DOT":-1.19e-6,"MEAN_MOTION_DDOT":0},{"OBJECT_NAME":"ONEWEB-0636","OBJECT_ID":"2023-043AH","EPOCH":"2025-12-30T05:06:34.307712","MEAN_MOTION":13.15548502,"ECCENTRICITY":0.00019492,"INCLINATION":87.9004,"RA_OF_ASC_NODE":292.9246,"ARG_OF_PERICENTER":77.5578,"MEAN_ANOMALY":282.5771,"EPHEMERIS_TYPE":0,"CLASSIFICATION_TYPE":"U","NORAD_CAT_ID":56077,"ELEMENT_SET_NO":999,"REV_AT_EPOCH":13419,"BSTAR":-0.00027599193,"MEAN_MOTION_DOT":-9.1e-7,"MEAN_MOTION_DDOT":0},{"OBJECT_NAME":"ONEWEB-0637","OBJECT_ID":"2023-043AJ","EPOCH":"2025-12-30T04:57:26.155872","MEAN_MOTION":13.15550192,"ECCENTRICITY":0.00017854,"INCLINATION":87.9007,"RA_OF_ASC_NODE":292.9424,"ARG_OF_PERICENTER":84.3422,"MEAN_ANOMALY":275.7912,"EPHEMERIS_TYPE":0,"CLASSIFICATION_TYPE":"U","NORAD_CAT_ID":56078,"ELEMENT_SET_NO":999,"REV_AT_EPOCH":13421,"BSTAR":4.6875372e-5,"MEAN_MOTION_DOT":3.0e-7,"MEAN_MOTION_DDOT":0},{"OBJECT_NAME":"ONEWEB-0647","OBJECT_ID":"2023-043AK","EPOCH":"2025-12-30T06:40:07.435776","MEAN_MOTION":13.15547628,"ECCENTRICITY":0.00018667,"INCLINATION":87.9007,"RA_OF_ASC_NODE":292.9413,"ARG_OF_PERICENTER":72.6938,"MEAN_ANOMALY":287.4396,"EPHEMERIS_TYPE":0,"CLASSIFICATION_TYPE":"U","NORAD_CAT_ID":56079,"ELEMENT_SET_NO":999,"REV_AT_EPOCH":13421,"BSTAR":0.00024312212,"MEAN_MOTION_DOT":1.04e-6,"MEAN_MOTION_DDOT":0},{"OBJECT_NAME":"ONEWEB-0651","OBJECT_ID":"2023-043AL","EPOCH":"2025-12-30T06:33:17.003808","MEAN_MOTION":13.15547466,"ECCENTRICITY":0.00019139,"INCLINATION":87.9008,"RA_OF_ASC_NODE":292.9358,"ARG_OF_PERICENTER":80.7375,"MEAN_ANOMALY":279.3972,"EPHEMERIS_TYPE":0,"CLASSIFICATION_TYPE":"U","NORAD_CAT_ID":56080,"ELEMENT_SET_NO":999,"REV_AT_EPOCH":13541,"BSTAR":0.0001621842,"MEAN_MOTION_DOT":7.4e-7,"MEAN_MOTION_DDOT":0},{"OBJECT_NAME":"ONEWEB-0718","OBJECT_ID":"2023-043AM","EPOCH":"2025-12-30T06:26:25.420128","MEAN_MOTION":13.15550285,"ECCENTRICITY":0.00011638,"INCLINATION":87.9007,"RA_OF_ASC_NODE":292.9173,"ARG_OF_PERICENTER":80.8032,"MEAN_ANOMALY":279.323,"EPHEMERIS_TYPE":0,"CLASSIFICATION_TYPE":"U","NORAD_CAT_ID":56081,"ELEMENT_SET_NO":999,"REV_AT_EPOCH":13422,"BSTAR":0.00037637817,"MEAN_MOTION_DOT":1.55e-6,"MEAN_MOTION_DDOT":0},{"OBJECT_NAME":"ONEWEB-0561","OBJECT_ID":"2023-068A","EPOCH":"2025-12-30T06:14:36.116736","MEAN_MOTION":13.20771006,"ECCENTRICITY":0.00022295,"INCLINATION":87.9211,"RA_OF_ASC_NODE":308.1421,"ARG_OF_PERICENTER":76.5929,"MEAN_ANOMALY":283.5452,"EPHEMERIS_TYPE":0,"CLASSIFICATION_TYPE":"U","NORAD_CAT_ID":56710,"ELEMENT_SET_NO":999,"REV_AT_EPOCH":12720,"BSTAR":0.00012116874,"MEAN_MOTION_DOT":6.2e-7,"MEAN_MOTION_DDOT":0},{"OBJECT_NAME":"ONEWEB-0668","OBJECT_ID":"2023-068B","EPOCH":"2025-12-30T06:13:56.698464","MEAN_MOTION":13.16593392,"ECCENTRICITY":0.0001284,"INCLINATION":87.9055,"RA_OF_ASC_NODE":262.3937,"ARG_OF_PERICENTER":93.6477,"MEAN_ANOMALY":266.48,"EPHEMERIS_TYPE":0,"CLASSIFICATION_TYPE":"U","NORAD_CAT_ID":56711,"ELEMENT_SET_NO":999,"REV_AT_EPOCH":12955,"BSTAR":0.00022139484,"MEAN_MOTION_DOT":9.7e-7,"MEAN_MOTION_DDOT":0},{"OBJECT_NAME":"ONEWEB-0676","OBJECT_ID":"2023-068C","EPOCH":"2025-12-30T06:25:20.812800","MEAN_MOTION":13.16596959,"ECCENTRICITY":0.00018762,"INCLINATION":87.9046,"RA_OF_ASC_NODE":262.4124,"ARG_OF_PERICENTER":78.6273,"MEAN_ANOMALY":281.5068,"EPHEMERIS_TYPE":0,"CLASSIFICATION_TYPE":"U","NORAD_CAT_ID":56712,"ELEMENT_SET_NO":999,"REV_AT_EPOCH":12947,"BSTAR":0.00016071582,"MEAN_MOTION_DOT":7.4e-7,"MEAN_MOTION_DDOT":0},{"OBJECT_NAME":"ONEWEB-0677","OBJECT_ID":"2023-068D","EPOCH":"2025-12-30T05:58:40.918080","MEAN_MOTION":13.20772684,"ECCENTRICITY":0.00018798,"INCLINATION":87.9223,"RA_OF_ASC_NODE":308.1293,"ARG_OF_PERICENTER":82.8093,"MEAN_ANOMALY":277.3254,"EPHEMERIS_TYPE":0,"CLASSIFICATION_TYPE":"U","NORAD_CAT_ID":56713,"ELEMENT_SET_NO":999,"REV_AT_EPOCH":12750,"BSTAR":-3.84458e-6,"MEAN_MOTION_DOT":1.1e-7,"MEAN_MOTION_DDOT":0},{"OBJECT_NAME":"ONEWEB-0678","OBJECT_ID":"2023-068E","EPOCH":"2025-12-30T05:40:48.288000","MEAN_MOTION":13.15534237,"ECCENTRICITY":0.00019819,"INCLINATION":87.9014,"RA_OF_ASC_NODE":292.9006,"ARG_OF_PERICENTER":67.1952,"MEAN_ANOMALY":292.9388,"EPHEMERIS_TYPE":0,"CLASSIFICATION_TYPE":"U","NORAD_CAT_ID":56714,"ELEMENT_SET_NO":999,"REV_AT_EPOCH":12707,"BSTAR":0.0073640477,"MEAN_MOTION_DOT":2.785e-5,"MEAN_MOTION_DDOT":0},{"OBJECT_NAME":"ONEWEB-0679","OBJECT_ID":"2023-068F","EPOCH":"2025-12-30T05:26:03.926112","MEAN_MOTION":13.16592774,"ECCENTRICITY":0.0001746,"INCLINATION":87.904,"RA_OF_ASC_NODE":262.4033,"ARG_OF_PERICENTER":93.8902,"MEAN_ANOMALY":266.2429,"EPHEMERIS_TYPE":0,"CLASSIFICATION_TYPE":"U","NORAD_CAT_ID":56715,"ELEMENT_SET_NO":999,"REV_AT_EPOCH":12949,"BSTAR":-4.5240065e-5,"MEAN_MOTION_DOT":-4.0e-8,"MEAN_MOTION_DDOT":0}]
